start=new Date('2022-01-20T00:00:00.000Z').valueOf();
sats=[{"REF_FRAME":"TEME","ELEMENT_SET_NO":"999","OBJECT_TYPE":"PAYLOAD","EPOCH":"2022-01-19T15:35:02.011776","RCS_SIZE":"LARGE","TIME_SYSTEM":"UTC","FILE":"3277788","TLE_LINE2":"2 45705  53.0551   5.4591 0001748  68.5217 291.5958 15.06394560 90721","PERIAPSIS":"546.020","SITE":"AFETR","ARG_OF_PERICENTER":"68.5217","COUNTRY_CODE":"US","INCLINATION":"53.0551","ECCENTRICITY":"0.00017480","EPHEMERIS_TYPE":"0","RA_OF_ASC_NODE":"5.4591","GP_ID":"194199534","SEMIMAJOR_AXIS":"6925.365","BSTAR":"0.00023306000000","NORAD_CAT_ID":"45705","MEAN_MOTION":"15.06394560","DECAY_DATE":null,"APOAPSIS":"548.441","TLE_LINE1":"1 45705U 20035BA  22019.64932884  .00003191  00000-0  23306-3 0  9990","MEAN_ANOMALY":"291.5958","OBJECT_NAME":"STARLINK-1410","MEAN_MOTION_DDOT":"0.0000000000000","CENTER_NAME":"EARTH","PERIOD":"95.592","LAUNCH_DATE":"2020-06-04","CLASSIFICATION_TYPE":"U","MEAN_ELEMENT_THEORY":"SGP4","MEAN_MOTION_DOT":"0.00003191","OBJECT_ID":"2020-035BA","REV_AT_EPOCH":"9072"},{"COUNTRY_CODE":"US","INCLINATION":"53.0554","ECCENTRICITY":"0.00014540","EPHEMERIS_TYPE":"0","GP_ID":"194197181","RA_OF_ASC_NODE":"335.7868","BSTAR":"0.00015193000000","SEMIMAJOR_AXIS":"6925.382","ELEMENT_SET_NO":"999","REF_FRAME":"TEME","EPOCH":"2022-01-19T13:47:34.088640","OBJECT_TYPE":"PAYLOAD","RCS_SIZE":"LARGE","TIME_SYSTEM":"UTC","FILE":"3277672","ARG_OF_PERICENTER":"60.3416","PERIAPSIS":"546.240","TLE_LINE2":"2 45706  53.0554 335.7868 0001454  60.3416 299.7717 15.06389195 91133","SITE":"AFETR","MEAN_MOTION_DOT":"0.00001982","REV_AT_EPOCH":"9113","OBJECT_ID":"2020-035BB","NORAD_CAT_ID":"45706","DECAY_DATE":null,"MEAN_MOTION":"15.06389195","MEAN_ANOMALY":"299.7717","TLE_LINE1":"1 45706U 20035BB  22019.57470010  .00001982  00000-0  15193-3 0  9992","OBJECT_NAME":"STARLINK-1411","APOAPSIS":"548.254","CENTER_NAME":"EARTH","PERIOD":"95.593","MEAN_MOTION_DDOT":"0.0000000000000","MEAN_ELEMENT_THEORY":"SGP4","LAUNCH_DATE":"2020-06-04","CLASSIFICATION_TYPE":"U"},{"MEAN_MOTION_DOT":"0.00008955","OBJECT_ID":"2020-035BC","REV_AT_EPOCH":"9154","NORAD_CAT_ID":"45707","MEAN_MOTION":"15.06408387","DECAY_DATE":null,"APOAPSIS":"548.385","TLE_LINE1":"1 45707U 20035BC  22019.57100800  .00008955  00000-0  61914-3 0  9999","OBJECT_NAME":"STARLINK-1412","MEAN_ANOMALY":"288.3182","MEAN_MOTION_DDOT":"0.0000000000000","PERIOD":"95.592","CENTER_NAME":"EARTH","LAUNCH_DATE":"2020-06-04","CLASSIFICATION_TYPE":"U","MEAN_ELEMENT_THEORY":"SGP4","COUNTRY_CODE":"US","INCLINATION":"53.0552","ECCENTRICITY":"0.00017290","EPHEMERIS_TYPE":"0","GP_ID":"194190417","RA_OF_ASC_NODE":"335.8085","SEMIMAJOR_AXIS":"6925.323","BSTAR":"0.00061914000000","REF_FRAME":"TEME","ELEMENT_SET_NO":"999","OBJECT_TYPE":"PAYLOAD","EPOCH":"2022-01-19T13:42:15.091200","RCS_SIZE":"LARGE","TIME_SYSTEM":"UTC","FILE":"3277432","TLE_LINE2":"2 45707  53.0552 335.8085 0001729  71.7995 288.3182 15.06408387 91547","PERIAPSIS":"545.990","SITE":"AFETR","ARG_OF_PERICENTER":"71.7995"},{"MEAN_MOTION_DOT":"0.00007465","OBJECT_ID":"2020-035BD","REV_AT_EPOCH":"9148","APOAPSIS":"548.445","MEAN_ANOMALY":"288.7963","TLE_LINE1":"1 45708U 20035BD  22019.14713189  .00007465  00000-0  51957-3 0  9994","OBJECT_NAME":"STARLINK-1418","NORAD_CAT_ID":"45708","MEAN_MOTION":"15.06396394","DECAY_DATE":null,"CLASSIFICATION_TYPE":"U","LAUNCH_DATE":"2020-06-04","MEAN_ELEMENT_THEORY":"SGP4","MEAN_MOTION_DDOT":"0.0000000000000","PERIOD":"95.592","CENTER_NAME":"EARTH","ECCENTRICITY":"0.00017620","COUNTRY_CODE":"US","INCLINATION":"53.0544","GP_ID":"194190669","RA_OF_ASC_NODE":"337.7095","SEMIMAJOR_AXIS":"6925.360","BSTAR":"0.00051957000000","EPHEMERIS_TYPE":"0","OBJECT_TYPE":"PAYLOAD","EPOCH":"2022-01-19T03:31:52.195296","RCS_SIZE":"LARGE","REF_FRAME":"TEME","ELEMENT_SET_NO":"999","PERIAPSIS":"546.004","TLE_LINE2":"2 45708  53.0544 337.7095 0001762  71.3217 288.7963 15.06396394 91489","SITE":"AFETR","ARG_OF_PERICENTER":"71.3217","TIME_SYSTEM":"UTC","FILE":"3277432"},{"DECAY_DATE":null,"MEAN_MOTION":"15.06394882","NORAD_CAT_ID":"45709","TLE_LINE1":"1 45709U 20035BE  22019.58208414  .00006944  00000-0  48465-3 0  9994","MEAN_ANOMALY":"296.8981","OBJECT_NAME":"STARLINK-1421","APOAPSIS":"548.282","PERIOD":"95.592","CENTER_NAME":"EARTH","MEAN_MOTION_DDOT":"0.0000000000000","MEAN_ELEMENT_THEORY":"SGP4","LAUNCH_DATE":"2020-06-04","CLASSIFICATION_TYPE":"U","REV_AT_EPOCH":"9150","OBJECT_ID":"2020-035BE","MEAN_MOTION_DOT":"0.00006944","ELEMENT_SET_NO":"999","REF_FRAME":"TEME","RCS_SIZE":"LARGE","EPOCH":"2022-01-19T13:58:12.069696","OBJECT_TYPE":"PAYLOAD","FILE":"3277432","TIME_SYSTEM":"UTC","ARG_OF_PERICENTER":"63.2163","SITE":"AFETR","TLE_LINE2":"2 45709  53.0560 335.7529 0001520  63.2163 296.8981 15.06394882 91503","PERIAPSIS":"546.177","INCLINATION":"53.0560","COUNTRY_CODE":"US","ECCENTRICITY":"0.00015200","EPHEMERIS_TYPE":"0","BSTAR":"0.00048465000000","SEMIMAJOR_AXIS":"6925.364","GP_ID":"194191419","RA_OF_ASC_NODE":"335.7529"},{"DECAY_DATE":null,"MEAN_MOTION":"15.06378715","NORAD_CAT_ID":"45710","TLE_LINE1":"1 45710U 20035BF  22019.57840125  .00002003  00000-0  15342-3 0  9996","MEAN_ANOMALY":"302.7130","OBJECT_NAME":"STARLINK-1423","APOAPSIS":"548.416","PERIOD":"95.593","CENTER_NAME":"EARTH","MEAN_MOTION_DDOT":"0.0000000000000","MEAN_ELEMENT_THEORY":"SGP4","CLASSIFICATION_TYPE":"U","LAUNCH_DATE":"2020-06-04","REV_AT_EPOCH":"9154","OBJECT_ID":"2020-035BF","MEAN_MOTION_DOT":"0.00002003","ELEMENT_SET_NO":"999","REF_FRAME":"TEME","RCS_SIZE":"LARGE","EPOCH":"2022-01-19T13:52:53.868000","OBJECT_TYPE":"PAYLOAD","FILE":"3277432","TIME_SYSTEM":"UTC","ARG_OF_PERICENTER":"57.4017","TLE_LINE2":"2 45710  53.0547 335.7703 0001642  57.4017 302.7130 15.06378715 91546","SITE":"AFETR","PERIAPSIS":"546.142","INCLINATION":"53.0547","COUNTRY_CODE":"US","ECCENTRICITY":"0.00016420","EPHEMERIS_TYPE":"0","BSTAR":"0.00015342000000","SEMIMAJOR_AXIS":"6925.414","GP_ID":"194189668","RA_OF_ASC_NODE":"335.7703"},{"MEAN_MOTION_DOT":"0.00007953","REV_AT_EPOCH":"9107","OBJECT_ID":"2020-035BG","NORAD_CAT_ID":"45711","DECAY_DATE":null,"MEAN_MOTION":"15.06390057","MEAN_ANOMALY":"304.8155","TLE_LINE1":"1 45711U 20035BG  22019.16188278  .00007953  00000-0  55238-3 0  9993","OBJECT_NAME":"STARLINK-1433","APOAPSIS":"548.418","PERIOD":"95.593","CENTER_NAME":"EARTH","MEAN_MOTION_DDOT":"0.0000000000000","MEAN_ELEMENT_THEORY":"SGP4","LAUNCH_DATE":"2020-06-04","CLASSIFICATION_TYPE":"U","COUNTRY_CODE":"US","INCLINATION":"53.0545","ECCENTRICITY":"0.00016950","EPHEMERIS_TYPE":"0","RA_OF_ASC_NODE":"337.6475","GP_ID":"194197916","BSTAR":"0.00055238000000","SEMIMAJOR_AXIS":"6925.379","ELEMENT_SET_NO":"999","REF_FRAME":"TEME","EPOCH":"2022-01-19T03:53:06.672192","OBJECT_TYPE":"PAYLOAD","RCS_SIZE":"LARGE","TIME_SYSTEM":"UTC","FILE":"3277719","ARG_OF_PERICENTER":"55.2994","TLE_LINE2":"2 45711  53.0545 337.6475 0001695  55.2994 304.8155 15.06390057 91071","SITE":"AFETR","PERIAPSIS":"546.070"},{"MEAN_MOTION":"15.06382503","DECAY_DATE":null,"NORAD_CAT_ID":"45712","APOAPSIS":"548.211","TLE_LINE1":"1 45712U 20035BH  22019.29088845  .00001868  00000-0  14431-3 0  9996","MEAN_ANOMALY":"290.4135","OBJECT_NAME":"STARLINK-1434","MEAN_MOTION_DDOT":"0.0000000000000","PERIOD":"95.593","CENTER_NAME":"EARTH","LAUNCH_DATE":"2020-06-04","CLASSIFICATION_TYPE":"U","MEAN_ELEMENT_THEORY":"SGP4","OBJECT_ID":"2020-035BH","REV_AT_EPOCH":"9109","MEAN_MOTION_DOT":"0.00001868","REF_FRAME":"TEME","ELEMENT_SET_NO":"999","RCS_SIZE":"LARGE","OBJECT_TYPE":"PAYLOAD","EPOCH":"2022-01-19T06:58:52.762080","FILE":"3277719","TIME_SYSTEM":"UTC","SITE":"AFETR","TLE_LINE2":"2 45712  53.0561 337.0701 0001363  69.7001 290.4135 15.06382503 91094","PERIAPSIS":"546.323","ARG_OF_PERICENTER":"69.7001","INCLINATION":"53.0561","COUNTRY_CODE":"US","ECCENTRICITY":"0.00013630","EPHEMERIS_TYPE":"0","SEMIMAJOR_AXIS":"6925.402","BSTAR":"0.00014431000000","GP_ID":"194198321","RA_OF_ASC_NODE":"337.0701"},{"MEAN_MOTION_DDOT":"0.0000000000000","PERIOD":"95.591","CENTER_NAME":"EARTH","LAUNCH_DATE":"2020-06-04","CLASSIFICATION_TYPE":"U","MEAN_ELEMENT_THEORY":"SGP4","MEAN_MOTION":"15.06415165","DECAY_DATE":null,"NORAD_CAT_ID":"45713","APOAPSIS":"548.197","TLE_LINE1":"1 45713U 20035BJ  22019.44383848  .00012956  00000-0  88671-3 0  9992","MEAN_ANOMALY":"296.4451","OBJECT_NAME":"STARLINK-1436","OBJECT_ID":"2020-035BJ","REV_AT_EPOCH":"9123","MEAN_MOTION_DOT":"0.00012956","FILE":"3277432","TIME_SYSTEM":"UTC","TLE_LINE2":"2 45713  53.0537 356.3784 0001487  63.6691 296.4451 15.06415165 91232","PERIAPSIS":"546.137","SITE":"AFETR","ARG_OF_PERICENTER":"63.6691","REF_FRAME":"TEME","ELEMENT_SET_NO":"999","RCS_SIZE":"LARGE","OBJECT_TYPE":"PAYLOAD","EPOCH":"2022-01-19T10:39:07.644672","EPHEMERIS_TYPE":"0","SEMIMAJOR_AXIS":"6925.302","BSTAR":"0.00088671000000","RA_OF_ASC_NODE":"356.3784","GP_ID":"194190920","INCLINATION":"53.0537","COUNTRY_CODE":"US","ECCENTRICITY":"0.00014870"},{"COUNTRY_CODE":"US","INCLINATION":"53.0553","ECCENTRICITY":"0.00014960","EPHEMERIS_TYPE":"0","GP_ID":"194190168","RA_OF_ASC_NODE":"335.8290","BSTAR":"0.00017977000000","SEMIMAJOR_AXIS":"6925.396","ELEMENT_SET_NO":"999","REF_FRAME":"TEME","EPOCH":"2022-01-19T13:36:57.619584","OBJECT_TYPE":"PAYLOAD","RCS_SIZE":"LARGE","TIME_SYSTEM":"UTC","FILE":"3277432","ARG_OF_PERICENTER":"64.6663","TLE_LINE2":"2 45714  53.0553 335.8290 0001496  64.6663 295.4480 15.06384406 91543","PERIAPSIS":"546.225","SITE":"AFETR","MEAN_MOTION_DOT":"0.00002396","REV_AT_EPOCH":"9154","OBJECT_ID":"2020-035BK","NORAD_CAT_ID":"45714","DECAY_DATE":null,"MEAN_MOTION":"15.06384406","MEAN_ANOMALY":"295.4480","TLE_LINE1":"1 45714U 20035BK  22019.56733356  .00002396  00000-0  17977-3 0  9997","OBJECT_NAME":"STARLINK-1437","APOAPSIS":"548.297","PERIOD":"95.593","CENTER_NAME":"EARTH","MEAN_MOTION_DDOT":"0.0000000000000","MEAN_ELEMENT_THEORY":"SGP4","LAUNCH_DATE":"2020-06-04","CLASSIFICATION_TYPE":"U"}];
